$$SOE
2459580.500000000, A.D. 2022-Jan-01 00:00:00.0000, -1.762711002910237E+08, -2.377939993521757E+08, -2.797475645528303E+07,
2459587.500000000, A.D. 2022-Jan-08 00:00:00.0000, -1.660102442499472E+08, -2.441315383283698E+08, -2.415014364261977E+07,
2459594.500000000, A.D. 2022-Jan-15 00:00:00.0000, -1.554394100054308E+08, -2.500131244021465E+08, -2.028044055537921E+07,
2459601.500000000, A.D. 2022-Jan-22 00:00:00.0000, -1.445750120716526E+08, -2.554224295860346E+08, -1.637244165898658E+07,
2459608.500000000, A.D. 2022-Jan-29 00:00:00.0000, -1.334343933725967E+08, -2.603436261618386E+08, -1.243317044953604E+07,
2459615.500000000, A.D. 2022-Feb-05 00:00:00.0000, -1.220358350416806E+08, -2.647614453193913E+08, -8.469875299296677E+06,
2459622.500000000, A.D. 2022-Feb-12 00:00:00.0000, -1.103985610162965E+08, -2.686612400988233E+08, -4.490024316946030E+06,
2459629.500000000, A.D. 2022-Feb-19 00:00:00.0000, -9.854273832534997E+07, -2.720290501882864E+08, -5.012987863104194E+05,
2459636.500000000, A.D. 2022-Feb-26 00:00:00.0000, -8.648947393320978E+07, -2.748516691691926E+08, 3.488415002225757E+06,
2459643.500000000, A.D. 2022-Mar-05 00:00:00.0000, -7.426080751456659E+07, -2.771167146378785E+08, 7.471035587663740E+06,
2459650.500000000, A.D. 2022-Mar-12 00:00:00.0000, -6.187969945639300E+07, -2.788127010189018E+08, 1.143829793756506E+07,
2459657.500000000, A.D. 2022-Mar-19 00:00:00.0000, -4.937001352223685E+07, -2.799291147292778E+08, 1.538176692098929E+07,
2459664.500000000, A.D. 2022-Mar-26 00:00:00.0000, -3.675649366276010E+07, -2.804564913261538E+08, 1.929285276001243E+07,
2459671.500000000, A.D. 2022-Apr-02 00:00:00.0000, -2.406473442447835E+07, -2.803864942514521E+08, 2.316282854869360E+07,
2459678.500000000, A.D. 2022-Apr-09 00:00:00.0000, -1.132114422711766E+07, -2.797119946470839E+08, 2.698284990372726E+07,
2459685.500000000, A.D. 2022-Apr-16 00:00:00.0000, 1.447099271104648E+06, -2.784271509785127E+08, 3.074397684029919E+07,
2459692.500000000, A.D. 2022-Apr-23 00:00:00.0000, 1.421210082960474E+07, -2.765274866774290E+08, 3.443719812661879E+07,
2459699.500000000, A.D. 2022-Apr-30 00:00:00.0000, 2.694530476487219E+07, -2.740099672424007E+08, 3.805345811800556E+07,
2459706.500000000, A.D. 2022-May-07 00:00:00.0000, 3.961756092444049E+07, -2.708730778877808E+08, 4.158368560253283E+07,
2459713.500000000, A.D. 2022-May-14 00:00:00.0000, 5.219920110897309E+07, -2.671168977780364E+08, 4.501882472527875E+07,
2459720.500000000, A.D. 2022-May-21 00:00:00.0000, 6.466012403235316E+07, -2.627431691264326E+08, 4.834986816464538E+07,
2459727.500000000, A.D. 2022-May-28 00:00:00.0000, 7.696988833278160E+07, -2.577553610999158E+08, 5.156789242240030E+07,
2459734.500000000, A.D. 2022-Jun-04 00:00:00.0000, 8.909781376950134E+07, -2.521587277669680E+08, 5.466409502979475E+07,
2459741.500000000, A.D. 2022-Jun-11 00:00:00.0000, 1.010130904723416E+08, -2.459603589681189E+08, 5.762983345957922E+07,
2459748.500000000, A.D. 2022-Jun-18 00:00:00.0000, 1.126848958641473E+08, -2.391692229619626E+08, 6.045666549264368E+07,
2459755.500000000, A.D. 2022-Jun-25 00:00:00.0000, 1.240825187196902E+08, -2.317961997577130E+08, 6.313639073605998E+07,
2459762.500000000, A.D. 2022-Jul-02 00:00:00.0000, 1.351754897770202E+08, -2.238541041208208E+08, 6.566109293556663E+07,
2459769.500000000, A.D. 2022-Jul-09 00:00:00.0000, 1.459337184119460E+08, -2.153576970681648E+08, 6.802318268601856E+07,
2459776.500000000, A.D. 2022-Jul-16 00:00:00.0000, 1.563276342749909E+08, -2.063236838583106E+08, 7.021544022097924E+07,
2459783.500000000, A.D. 2022-Jul-23 00:00:00.0000, 1.663283304885650E+08, -1.967706976030584E+08, 7.223105803877239E+07,
2459790.500000000, A.D. 2022-Jul-30 00:00:00.0000, 1.759077071420794E+08, -1.867192711974946E+08, 7.406368259851398E+07,
2459797.500000000, A.D. 2022-Aug-06 00:00:00.0000, 1.850386172184308E+08, -1.761917964337833E+08, 7.570745430234493E+07,
2459804.500000000, A.D. 2022-Aug-13 00:00:00.0000, 1.936950125666276E+08, -1.652124672566481E+08, 7.715704554901205E+07,
2459811.500000000, A.D. 2022-Aug-20 00:00:00.0000, 2.018520867159431E+08, -1.538072075907774E+08, 7.840769644635245E+07,
2459818.500000000, A.D. 2022-Aug-27 00:00:00.0000, 2.094864129228982E+08, -1.420035846206137E+08, 7.945524761481713E+07,
2459825.500000000, A.D. 2022-Sep-03 00:00:00.0000, 2.165760760144925E+08, -1.298307080261555E+08, 8.029616957598394E+07,
2459832.500000000, A.D. 2022-Sep-10 00:00:00.0000, 2.231007964595280E+08, -1.173191157896582E+08, 8.092758828596263E+07,
2459839.500000000, A.D. 2022-Sep-17 00:00:00.0000, 2.290420451003346E+08, -1.045006474584468E+08, 8.134730642644008E+07,
2459846.500000000, A.D. 2022-Sep-24 00:00:00.0000, 2.343831471042285E+08, -9.140830603336875E+07, 8.155382011398178E+07,
2459853.500000000, A.D. 2022-Oct-01 00:00:00.0000, 2.391093740040175E+08, -7.807610983677655E+07, 8.154633073165174E+07,
2459860.500000000, A.D. 2022-Oct-08 00:00:00.0000, 2.432080230355967E+08, -6.453893535045946E+07, 8.132475168526080E+07,
2459867.500000000, A.D. 2022-Oct-15 00:00:00.0000, 2.466684818544125E+08, -5.083235149830759E+07, 8.088971015359820E+07,
2459874.500000000, A.D. 2022-Oct-22 00:00:00.0000, 2.494822756889454E+08, -3.699244887213081E+07, 8.024254386481594E+07,
2459881.500000000, A.D. 2022-Oct-29 00:00:00.0000, 2.516430988981590E+08, -2.305566839213917E+07, 7.938529249639511E+07,
2459888.500000000, A.D. 2022-Nov-05 00:00:00.0000, 2.531468327545584E+08, -9.058628591665715E+06, 7.832068384871189E+07,
2459895.500000000, A.D. 2022-Nov-12 00:00:00.0000, 2.539915474763321E+08, 4.962047807276390E+06, 7.705211528077152E+07,
2459902.500000000, A.D. 2022-Nov-19 00:00:00.0000, 2.541774880338388E+08, 1.896990517538293E+07, 7.558363067637405E+07,
2459909.500000000, A.D. 2022-Nov-26 00:00:00.0000, 2.537070444799055E+08, 3.292882189786389E+07, 7.391989322958283E+07,
2459916.500000000, A.D. 2022-Dec-03 00:00:00.0000, 2.525847076831810E+08, 4.680317122262785E+07, 7.206615443509820E+07,
2459923.500000000, A.D. 2022-Dec-10 00:00:00.0000, 2.508170114269258E+08, 6.055797450012235E+07, 7.002821972909223E+07,
2459930.500000000, A.D. 2022-Dec-17 00:00:00.0000, 2.484124619914751E+08, 7.415904541267954E+07, 6.781241126001382E+07,
2459937.500000000, A.D. 2022-Dec-24 00:00:00.0000, 2.453814565705938E+08, 8.757312394730748E+07, 6.542552828240003E+07,
2459944.500000000, A.D. 2022-Dec-31 00:00:00.0000, 2.417361922348314E+08, 1.007679992463951E+08, 6.287480566944106E+07,
2459951.500000000, A.D. 2023-Jan-07 00:00:00.0000, 2.374905669874305E+08, 1.137126215376957E+08, 6.016787112395224E+07,
2459958.500000000, A.D. 2023-Jan-14 00:00:00.0000, 2.326600723995516E+08, 1.263772031147453E+08, 5.731270181200634E+07,
2459965.500000000, A.D. 2023-Jan-21 00:00:00.0000, 2.272616786751316E+08, 1.387333048969034E+08, 5.431758072114342E+07,
2459972.500000000, A.D. 2023-Jan-28 00:00:00.0000, 2.213137172952471E+08, 1.507539082593944E+08, 5.119105285617204E+07,
2459979.500000000, A.D. 2023-Feb-04 00:00:00.0000, 2.148357624461113E+08, 1.624134752403548E+08, 4.794188195998200E+07,
2459986.500000000, A.D. 2023-Feb-11 00:00:00.0000, 2.078485107849262E+08, 1.736879971940643E+08, 4.457900829438159E+07,
2459993.500000000, A.D. 2023-Feb-18 00:00:00.0000, 2.003736607500580E+08, 1.845550314786011E+08, 4.111150776052254E+07,
2460000.500000000, A.D. 2023-Feb-25 00:00:00.0000, 1.924337928395201E+08, 1.949937265473467E+08, 3.754855260831690E+07,
2460007.500000000, A.D. 2023-Mar-04 00:00:00.0000, 1.840522519877524E+08, 2.049848360950202E+08, 3.389937395989981E+07,
2460014.500000000, A.D. 2023-Mar-11 00:00:00.0000, 1.752530329546753E+08, 2.145107229857098E+08, 3.017322633533674E+07,
2460021.500000000, A.D. 2023-Mar-18 00:00:00.0000, 1.660606695353113E+08, 2.235553537293965E+08, 2.637935433368696E+07,
2460028.500000000, A.D. 2023-Mar-25 00:00:00.0000, 1.565001284554506E+08, 2.321042843365875E+08, 2.252696157657617E+07,
2460035.500000000, A.D. 2023-Apr-01 00:00:00.0000, 1.465967089432235E+08, 2.401446388406374E+08, 1.862518199183719E+07,
2460042.500000000, A.D. 2023-Apr-08 00:00:00.0000, 1.363759478126802E+08, 2.476650825893065E+08, 1.468305362599826E+07,
2460049.500000000, A.D. 2023-Apr-15 00:00:00.0000, 1.258635280294406E+08, 2.546557900393974E+08, 1.070949510002202E+07,
2460056.500000000, A.D. 2023-Apr-22 00:00:00.0000, 1.150851927554140E+08, 2.611084048500148E+08, 6.713284261502773E+06,
2460063.500000000, A.D. 2023-Apr-29 00:00:00.0000, 1.040666677288349E+08, 2.670159953519585E+08, 2.703038909641668E+06,
2460070.500000000, A.D. 2023-May-06 00:00:00.0000, 9.283359024566126E+07, 2.723730079328536E+08, -1.312800180315986E+06,
2460077.500000000, A.D. 2023-May-13 00:00:00.0000, 8.141144370938237E+07, 2.771752181603755E+08, -5.325984010530755E+06,
2460084.500000000, A.D. 2023-May-20 00:00:00.0000, 6.982549786905254E+07, 2.814196798222784E+08, -9.328468059903055E+06,
2460091.500000000, A.D. 2023-May-27 00:00:00.0000, 5.810075477404547E+07, 2.851046724680741E+08, -1.331242306634709E+07,
2460098.500000000, A.D. 2023-Jun-03 00:00:00.0000, 4.626190029476493E+07, 2.882296480347130E+08, -1.727024401948765E+07,
2460105.500000000, A.D. 2023-Jun-10 00:00:00.0000, 3.433326098968849E+07, 2.907951770409685E+08, -2.119455749595542E+07,
2460112.500000000, A.D. 2023-Jun-17 00:00:00.0000, 2.233876613715120E+07, 2.928028947320436E+08, -2.507822748124644E+07,
2460119.500000000, A.D. 2023-Jun-24 00:00:00.0000, 1.030191496068638E+07, 2.942554476173590E+08, -2.891435983379297E+07,
2460126.500000000, A.D. 2023-Jul-01 00:00:00.0000, -1.754251003976336E+06, 2.951564415686784E+08, -3.269630547682145E+07,
2460133.500000000, A.D. 2023-Jul-08 00:00:00.0000, -1.380717238047040E+07, 2.955103925929129E+08, -3.641766222629352E+07,
2460140.500000000, A.D. 2023-Jul-15 00:00:00.0000, -2.583479484415124E+07, 2.953226776767492E+08, -4.007227548931050E+07,
2460147.500000000, A.D. 2023-Jul-22 00:00:00.0000, -3.781558723760338E+07, 2.945994848561150E+08, -4.365423835233018E+07,
$$EOE